start=new Date('2022-09-03T00:00:00.000Z').valueOf();
sats=[{"FILE":"3555599","EPHEMERIS_TYPE":"0","SITE":"AFETR","CLASSIFICATION_TYPE":"U","ECCENTRICITY":"0.00015730","TLE_LINE2":"2 48371  53.0555 355.4645 0001573  84.6011 275.5157 15.06387650 73649","MEAN_MOTION_DOT":"0.00000870","NORAD_CAT_ID":"48371","MEAN_ELEMENT_THEORY":"SGP4","EPOCH":"2022-09-02T17:59:53.717856","COUNTRY_CODE":"US","MEAN_ANOMALY":"275.5157","DECAY_DATE":null,"RA_OF_ASC_NODE":"355.4645","REV_AT_EPOCH":"7364","PERIAPSIS":"546.162","GP_ID":"211588726","OBJECT_TYPE":"PAYLOAD","MEAN_MOTION":"15.06387650","REF_FRAME":"TEME","TLE_LINE1":"1 48371U 21038U   22245.74992729  .00000870  00000-0  77315-4 0  9993","CENTER_NAME":"EARTH","ARG_OF_PERICENTER":"84.6011","APOAPSIS":"548.341","TIME_SYSTEM":"UTC","PERIOD":"95.593","RCS_SIZE":"LARGE","INCLINATION":"53.0555","OBJECT_ID":"2021-038U","OBJECT_NAME":"STARLINK-2589","LAUNCH_DATE":"2021-05-04","ELEMENT_SET_NO":"999","MEAN_MOTION_DDOT":"0.0000000000000","BSTAR":"0.00007731500000","SEMIMAJOR_AXIS":"6925.386"},{"TIME_SYSTEM":"UTC","APOAPSIS":"548.010","PERIOD":"95.592","RCS_SIZE":"LARGE","ARG_OF_PERICENTER":"75.5328","OBJECT_NAME":"STARLINK-2572","OBJECT_ID":"2021-038V","INCLINATION":"53.0549","MEAN_MOTION_DDOT":"0.0000000000000","LAUNCH_DATE":"2021-05-04","ELEMENT_SET_NO":"999","BSTAR":"0.00019699000000","SEMIMAJOR_AXIS":"6925.356","FILE":"3555599","EPHEMERIS_TYPE":"0","SITE":"AFETR","MEAN_MOTION_DOT":"0.00002654","EPOCH":"2022-09-02T16:19:02.196192","NORAD_CAT_ID":"48372","MEAN_ELEMENT_THEORY":"SGP4","CLASSIFICATION_TYPE":"U","ECCENTRICITY":"0.00011400","TLE_LINE2":"2 48372  53.0549 355.7777 0001140  75.5328 284.5787 15.06397644 73634","REV_AT_EPOCH":"7363","PERIAPSIS":"546.431","OBJECT_TYPE":"PAYLOAD","GP_ID":"211588978","COUNTRY_CODE":"US","MEAN_ANOMALY":"284.5787","RA_OF_ASC_NODE":"355.7777","DECAY_DATE":null,"TLE_LINE1":"1 48372U 21038V   22245.67988653  .00002654  00000-0  19699-3 0  9999","REF_FRAME":"TEME","CENTER_NAME":"EARTH","MEAN_MOTION":"15.06397644"},{"MEAN_MOTION_DDOT":"0.0000000000000","ELEMENT_SET_NO":"999","LAUNCH_DATE":"2021-05-04","BSTAR":"0.00015998000000","SEMIMAJOR_AXIS":"6925.373","PERIOD":"95.593","TIME_SYSTEM":"UTC","APOAPSIS":"548.222","RCS_SIZE":"LARGE","ARG_OF_PERICENTER":"105.1880","OBJECT_NAME":"STARLINK-2609","OBJECT_ID":"2021-038W","INCLINATION":"53.0568","OBJECT_TYPE":"PAYLOAD","GP_ID":"211589217","PERIAPSIS":"546.255","REV_AT_EPOCH":"7362","COUNTRY_CODE":"US","DECAY_DATE":null,"RA_OF_ASC_NODE":"356.0783","MEAN_ANOMALY":"254.9266","TLE_LINE1":"1 48373U 21038W   22245.60985838  .00002102  00000-0  15998-3 0  9991","REF_FRAME":"TEME","CENTER_NAME":"EARTH","MEAN_MOTION":"15.06391905","EPHEMERIS_TYPE":"0","FILE":"3555599","SITE":"AFETR","MEAN_MOTION_DOT":"0.00002102","EPOCH":"2022-09-02T14:38:11.764032","MEAN_ELEMENT_THEORY":"SGP4","NORAD_CAT_ID":"48373","ECCENTRICITY":"0.00014200","CLASSIFICATION_TYPE":"U","TLE_LINE2":"2 48373  53.0568 356.0783 0001420 105.1880 254.9266 15.06391905 73627"},{"ARG_OF_PERICENTER":"88.9990","TIME_SYSTEM":"UTC","APOAPSIS":"548.092","PERIOD":"95.592","RCS_SIZE":"LARGE","INCLINATION":"53.0557","OBJECT_NAME":"STARLINK-2604","OBJECT_ID":"2021-038X","ELEMENT_SET_NO":"999","LAUNCH_DATE":"2021-05-04","MEAN_MOTION_DDOT":"0.0000000000000","BSTAR":"0.00008096600000","SEMIMAJOR_AXIS":"6925.343","FILE":"3555599","EPHEMERIS_TYPE":"0","SITE":"AFETR","CLASSIFICATION_TYPE":"U","ECCENTRICITY":"0.00012760","TLE_LINE2":"2 48374  53.0557 355.7934 0001276  88.9990 271.1145 15.06401806 73639","MEAN_MOTION_DOT":"0.00000925","EPOCH":"2022-09-02T16:07:03.617760","NORAD_CAT_ID":"48374","MEAN_ELEMENT_THEORY":"SGP4","COUNTRY_CODE":"US","MEAN_ANOMALY":"271.1145","DECAY_DATE":null,"RA_OF_ASC_NODE":"355.7934","REV_AT_EPOCH":"7363","PERIAPSIS":"546.324","OBJECT_TYPE":"PAYLOAD","GP_ID":"211587978","MEAN_MOTION":"15.06401806","TLE_LINE1":"1 48374U 21038X   22245.67156965  .00000925  00000-0  80966-4 0  9999","REF_FRAME":"TEME","CENTER_NAME":"EARTH"},{"CLASSIFICATION_TYPE":"U","ECCENTRICITY":"0.00014790","TLE_LINE2":"2 48375  53.0557 354.9237 0001479  73.5421 286.5731 15.06397872 73662","MEAN_MOTION_DOT":"-0.00000604","MEAN_ELEMENT_THEORY":"SGP4","NORAD_CAT_ID":"48375","EPOCH":"2022-09-02T20:49:44.698080","FILE":"3555599","EPHEMERIS_TYPE":"0","SITE":"AFETR","MEAN_MOTION":"15.06397872","TLE_LINE1":"1 48375U 21038Y   22245.86787845 -.00000604  00000-0 -21637-4 0  9994","REF_FRAME":"TEME","CENTER_NAME":"EARTH","COUNTRY_CODE":"US","MEAN_ANOMALY":"286.5731","DECAY_DATE":null,"RA_OF_ASC_NODE":"354.9237","PERIAPSIS":"546.196","REV_AT_EPOCH":"7366","GP_ID":"211588227","OBJECT_TYPE":"PAYLOAD","INCLINATION":"53.0557","OBJECT_ID":"2021-038Y","OBJECT_NAME":"STARLINK-2603","ARG_OF_PERICENTER":"73.5421","TIME_SYSTEM":"UTC","APOAPSIS":"548.244","PERIOD":"95.592","RCS_SIZE":"LARGE","BSTAR":"-0.00002163700000","SEMIMAJOR_AXIS":"6925.355","ELEMENT_SET_NO":"999","LAUNCH_DATE":"2021-05-04","MEAN_MOTION_DDOT":"0.0000000000000"},{"CLASSIFICATION_TYPE":"U","ECCENTRICITY":"0.00012980","TLE_LINE2":"2 48376  53.0552 355.5467 0001298  99.8376 260.2760 15.06395342 73648","MEAN_MOTION_DOT":"0.00001351","EPOCH":"2022-09-02T17:33:20.870784","MEAN_ELEMENT_THEORY":"SGP4","NORAD_CAT_ID":"48376","FILE":"3555599","EPHEMERIS_TYPE":"0","SITE":"AFETR","MEAN_MOTION":"15.06395342","TLE_LINE1":"1 48376U 21038Z   22245.73149156  .00001351  00000-0  10956-3 0  9997","REF_FRAME":"TEME","CENTER_NAME":"EARTH","COUNTRY_CODE":"US","MEAN_ANOMALY":"260.2760","RA_OF_ASC_NODE":"355.5467","DECAY_DATE":null,"PERIAPSIS":"546.329","REV_AT_EPOCH":"7364","OBJECT_TYPE":"PAYLOAD","GP_ID":"211589478","INCLINATION":"53.0552","OBJECT_ID":"2021-038Z","OBJECT_NAME":"STARLINK-2610","ARG_OF_PERICENTER":"99.8376","APOAPSIS":"548.127","TIME_SYSTEM":"UTC","PERIOD":"95.592","RCS_SIZE":"LARGE","BSTAR":"0.00010956000000","SEMIMAJOR_AXIS":"6925.363","LAUNCH_DATE":"2021-05-04","ELEMENT_SET_NO":"999","MEAN_MOTION_DDOT":"0.0000000000000"},{"BSTAR":"-0.00000847640000","SEMIMAJOR_AXIS":"6925.350","MEAN_MOTION_DDOT":"0.0000000000000","ELEMENT_SET_NO":"999","LAUNCH_DATE":"2021-05-04","OBJECT_NAME":"STARLINK-2499","OBJECT_ID":"2021-038AA","INCLINATION":"53.0562","TIME_SYSTEM":"UTC","APOAPSIS":"548.092","PERIOD":"95.592","RCS_SIZE":"LARGE","ARG_OF_PERICENTER":"82.2163","REF_FRAME":"TEME","TLE_LINE1":"1 48377U 21038AA  22245.72780804 -.00000408  00000-0 -84764-5 0  9992","CENTER_NAME":"EARTH","MEAN_MOTION":"15.06399426","PERIAPSIS":"546.339","REV_AT_EPOCH":"7364","OBJECT_TYPE":"PAYLOAD","GP_ID":"211589717","COUNTRY_CODE":"US","MEAN_ANOMALY":"277.8970","DECAY_DATE":null,"RA_OF_ASC_NODE":"355.5445","MEAN_MOTION_DOT":"-0.00000408","NORAD_CAT_ID":"48377","EPOCH":"2022-09-02T17:28:02.614656","MEAN_ELEMENT_THEORY":"SGP4","CLASSIFICATION_TYPE":"U","ECCENTRICITY":"0.00012660","TLE_LINE2":"2 48377  53.0562 355.5445 0001266  82.2163 277.8970 15.06399426 73645","FILE":"3555599","EPHEMERIS_TYPE":"0","SITE":"AFETR"},{"SITE":"AFETR","EPHEMERIS_TYPE":"0","FILE":"3555599","EPOCH":"2022-09-02T14:11:39.144192","MEAN_ELEMENT_THEORY":"SGP4","NORAD_CAT_ID":"48378","MEAN_MOTION_DOT":"0.00000220","TLE_LINE2":"2 48378  53.0553 356.1762 0001365  81.4969 278.6175 15.06397917 73627","ECCENTRICITY":"0.00013650","CLASSIFICATION_TYPE":"U","OBJECT_TYPE":"PAYLOAD","GP_ID":"211588478","PERIAPSIS":"546.275","REV_AT_EPOCH":"7362","RA_OF_ASC_NODE":"356.1762","DECAY_DATE":null,"MEAN_ANOMALY":"278.6175","COUNTRY_CODE":"US","CENTER_NAME":"EARTH","REF_FRAME":"TEME","TLE_LINE1":"1 48378U 21038AB  22245.59142528  .00000220  00000-0  33694-4 0  9998","MEAN_MOTION":"15.06397917","RCS_SIZE":"LARGE","PERIOD":"95.592","APOAPSIS":"548.165","TIME_SYSTEM":"UTC","ARG_OF_PERICENTER":"81.4969","OBJECT_NAME":"STARLINK-2526","OBJECT_ID":"2021-038AB","INCLINATION":"53.0553","MEAN_MOTION_DDOT":"0.0000000000000","ELEMENT_SET_NO":"999","LAUNCH_DATE":"2021-05-04","SEMIMAJOR_AXIS":"6925.355","BSTAR":"0.00003369400000"},{"DECAY_DATE":null,"RA_OF_ASC_NODE":"355.5869","MEAN_ANOMALY":"270.3666","COUNTRY_CODE":"US","OBJECT_TYPE":"PAYLOAD","GP_ID":"211588727","REV_AT_EPOCH":"7364","PERIAPSIS":"546.338","MEAN_MOTION":"15.06395037","CENTER_NAME":"EARTH","TLE_LINE1":"1 48379U 21038AC  22245.72043461  .00001552  00000-0  12306-3 0  9995","REF_FRAME":"TEME","SITE":"AFETR","EPHEMERIS_TYPE":"0","FILE":"3555599","TLE_LINE2":"2 48379  53.0561 355.5869 0001286  89.7470 270.3666 15.06395037 73645","ECCENTRICITY":"0.00012860","CLASSIFICATION_TYPE":"U","MEAN_ELEMENT_THEORY":"SGP4","EPOCH":"2022-09-02T17:17:25.550304","NORAD_CAT_ID":"48379","MEAN_MOTION_DOT":"0.00001552","LAUNCH_DATE":"2021-05-04","ELEMENT_SET_NO":"999","MEAN_MOTION_DDOT":"0.0000000000000","SEMIMAJOR_AXIS":"6925.364","BSTAR":"0.00012306000000","ARG_OF_PERICENTER":"89.7470","RCS_SIZE":"LARGE","PERIOD":"95.592","APOAPSIS":"548.119","TIME_SYSTEM":"UTC","INCLINATION":"53.0561","OBJECT_ID":"2021-038AC","OBJECT_NAME":"STARLINK-2612"},{"REF_FRAME":"TEME","TLE_LINE1":"1 48380U 21038AD  22245.61260330  .00001578  00000-0  12484-3 0  9996","CENTER_NAME":"EARTH","MEAN_MOTION":"15.06394364","OBJECT_TYPE":"PAYLOAD","GP_ID":"211588979","PERIAPSIS":"546.227","REV_AT_EPOCH":"7362","COUNTRY_CODE":"US","DECAY_DATE":null,"RA_OF_ASC_NODE":"356.0688","MEAN_ANOMALY":"279.2847","MEAN_MOTION_DOT":"0.00001578","MEAN_ELEMENT_THEORY":"SGP4","EPOCH":"2022-09-02T14:42:08.925120","NORAD_CAT_ID":"48380","ECCENTRICITY":"0.00014500","CLASSIFICATION_TYPE":"U","TLE_LINE2":"2 48380  53.0559 356.0688 0001450  80.8306 279.2847 15.06394364 73621","EPHEMERIS_TYPE":"0","FILE":"3555599","SITE":"AFETR","BSTAR":"0.00012484000000","SEMIMAJOR_AXIS":"6925.366","MEAN_MOTION_DDOT":"0.0000000000000","ELEMENT_SET_NO":"999","LAUNCH_DATE":"2021-05-04","OBJECT_ID":"2021-038AD","OBJECT_NAME":"STARLINK-2614","INCLINATION":"53.0559","PERIOD":"95.592","APOAPSIS":"548.235","TIME_SYSTEM":"UTC","RCS_SIZE":"LARGE","ARG_OF_PERICENTER":"80.8306"}];
